start=new Date('2022-03-21T00:00:00.000Z').valueOf();
sats=[{"PERIAPSIS":"546.146","TLE_LINE1":"1 48654U 21044S   22079.53156717  .00002816  00000-0  20779-3 0  9998","APOAPSIS":"548.190","ARG_OF_PERICENTER":"80.9956","CLASSIFICATION_TYPE":"U","BSTAR":"0.00020779000000","OBJECT_TYPE":"PAYLOAD","MEAN_MOTION":"15.06414851","NORAD_CAT_ID":"48654","MEAN_MOTION_DDOT":"0.0000000000000","OBJECT_ID":"2021-044S","EPHEMERIS_TYPE":"0","ELEMENT_SET_NO":"999","CENTER_NAME":"EARTH","MEAN_ANOMALY":"279.1200","INCLINATION":"53.0529","OBJECT_NAME":"STARLINK-2651","DECAY_DATE":null,"ECCENTRICITY":"0.00014760","FILE":"3367488","TLE_LINE2":"2 48654  53.0529 151.6344 0001476  80.9956 279.1200 15.06414851 45131","GP_ID":"199269320","SITE":"AFETR","TIME_SYSTEM":"UTC","LAUNCH_DATE":"2021-05-26","PERIOD":"95.591","EPOCH":"2022-03-20T12:45:27.403488","MEAN_MOTION_DOT":"0.00002816","RCS_SIZE":"LARGE","SEMIMAJOR_AXIS":"6925.303","RA_OF_ASC_NODE":"151.6344","MEAN_ELEMENT_THEORY":"SGP4","REF_FRAME":"TEME","REV_AT_EPOCH":"4513","COUNTRY_CODE":"US"},{"TLE_LINE2":"2 48655  53.0548 151.0627 0001489  67.4590 292.6557 15.06405304 45159","ECCENTRICITY":"0.00014890","FILE":"3367488","DECAY_DATE":null,"OBJECT_NAME":"STARLINK-2657","MEAN_ANOMALY":"292.6557","INCLINATION":"53.0548","CENTER_NAME":"EARTH","ELEMENT_SET_NO":"999","EPHEMERIS_TYPE":"0","OBJECT_ID":"2021-044T","MEAN_MOTION_DDOT":"0.0000000000000","MEAN_MOTION":"15.06405304","NORAD_CAT_ID":"48655","OBJECT_TYPE":"PAYLOAD","BSTAR":"0.00006511100000","CLASSIFICATION_TYPE":"U","ARG_OF_PERICENTER":"67.4590","APOAPSIS":"548.228","TLE_LINE1":"1 48655U 21044T   22079.66057853  .00000689  00000-0  65111-4 0  9990","PERIAPSIS":"546.166","COUNTRY_CODE":"US","REV_AT_EPOCH":"4515","REF_FRAME":"TEME","RA_OF_ASC_NODE":"151.0627","MEAN_ELEMENT_THEORY":"SGP4","SEMIMAJOR_AXIS":"6925.332","RCS_SIZE":"LARGE","MEAN_MOTION_DOT":"0.00000689","EPOCH":"2022-03-20T15:51:13.984992","PERIOD":"95.592","LAUNCH_DATE":"2021-05-26","TIME_SYSTEM":"UTC","SITE":"AFETR","GP_ID":"199270070"},{"OBJECT_NAME":"STARLINK-2701","DECAY_DATE":null,"MEAN_ANOMALY":"285.0640","INCLINATION":"53.0546","TLE_LINE2":"2 48656  53.0546 151.9634 0001611  75.0527 285.0640 15.06411733 45126","FILE":"3367010","ECCENTRICITY":"0.00016110","ELEMENT_SET_NO":"999","EPHEMERIS_TYPE":"0","OBJECT_ID":"2021-044U","CENTER_NAME":"EARTH","OBJECT_TYPE":"PAYLOAD","BSTAR":"0.00022876000000","MEAN_MOTION_DDOT":"0.0000000000000","NORAD_CAT_ID":"48656","MEAN_MOTION":"15.06411733","ARG_OF_PERICENTER":"75.0527","PERIAPSIS":"546.062","TLE_LINE1":"1 48656U 21044U   22079.45785668  .00003128  00000-0  22876-3 0  9991","APOAPSIS":"548.293","CLASSIFICATION_TYPE":"U","REV_AT_EPOCH":"4512","MEAN_ELEMENT_THEORY":"SGP4","RA_OF_ASC_NODE":"151.9634","REF_FRAME":"TEME","COUNTRY_CODE":"US","SEMIMAJOR_AXIS":"6925.313","PERIOD":"95.591","RCS_SIZE":"LARGE","EPOCH":"2022-03-20T10:59:18.817152","MEAN_MOTION_DOT":"0.00003128","SITE":"AFETR","TIME_SYSTEM":"UTC","GP_ID":"199233494","LAUNCH_DATE":"2021-05-26"},{"OBJECT_TYPE":"PAYLOAD","BSTAR":"0.00033951000000","MEAN_MOTION_DDOT":"0.0000000000000","MEAN_MOTION":"15.06412866","NORAD_CAT_ID":"48657","ARG_OF_PERICENTER":"69.4054","APOAPSIS":"548.199","PERIAPSIS":"546.149","TLE_LINE1":"1 48657U 21044V   22079.65320587  .00004781  00000-0  33951-3 0  9991","CLASSIFICATION_TYPE":"U","DECAY_DATE":null,"OBJECT_NAME":"STARLINK-2734","MEAN_ANOMALY":"290.7094","INCLINATION":"53.0541","TLE_LINE2":"2 48657  53.0541 151.0883 0001480  69.4054 290.7094 15.06412866 45152","ECCENTRICITY":"0.00014800","FILE":"3367488","ELEMENT_SET_NO":"999","EPHEMERIS_TYPE":"0","OBJECT_ID":"2021-044V","CENTER_NAME":"EARTH","PERIOD":"95.591","RCS_SIZE":"LARGE","EPOCH":"2022-03-20T15:40:36.987168","MEAN_MOTION_DOT":"0.00004781","TIME_SYSTEM":"UTC","SITE":"AFETR","GP_ID":"199269068","LAUNCH_DATE":"2021-05-26","REV_AT_EPOCH":"4515","REF_FRAME":"TEME","RA_OF_ASC_NODE":"151.0883","MEAN_ELEMENT_THEORY":"SGP4","COUNTRY_CODE":"US","SEMIMAJOR_AXIS":"6925.309"},{"PERIOD":"95.592","RCS_SIZE":"LARGE","EPOCH":"2022-03-20T17:10:51.041856","MEAN_MOTION_DOT":"0.00000361","TIME_SYSTEM":"UTC","SITE":"AFETR","GP_ID":"199269820","LAUNCH_DATE":"2021-05-26","REV_AT_EPOCH":"4516","REF_FRAME":"TEME","RA_OF_ASC_NODE":"150.8135","MEAN_ELEMENT_THEORY":"SGP4","COUNTRY_CODE":"US","SEMIMAJOR_AXIS":"6925.354","OBJECT_TYPE":"PAYLOAD","BSTAR":"0.00004316700000","MEAN_MOTION_DDOT":"0.0000000000000","NORAD_CAT_ID":"48658","MEAN_MOTION":"15.06398081","ARG_OF_PERICENTER":"57.0239","APOAPSIS":"548.287","TLE_LINE1":"1 48658U 21044W   22079.71586854  .00000361  00000-0  43167-4 0  9991","PERIAPSIS":"546.152","CLASSIFICATION_TYPE":"U","DECAY_DATE":null,"OBJECT_NAME":"STARLINK-2647","MEAN_ANOMALY":"303.0898","INCLINATION":"53.0538","TLE_LINE2":"2 48658  53.0538 150.8135 0001541  57.0239 303.0898 15.06398081 45165","ECCENTRICITY":"0.00015410","FILE":"3367488","ELEMENT_SET_NO":"999","EPHEMERIS_TYPE":"0","OBJECT_ID":"2021-044W","CENTER_NAME":"EARTH"},{"TLE_LINE2":"2 48659  53.0527 151.7214 0001469  63.9642 296.1498 15.06407298 45131","FILE":"3367010","ECCENTRICITY":"0.00014690","DECAY_DATE":null,"OBJECT_NAME":"STARLINK-2717","MEAN_ANOMALY":"296.1498","INCLINATION":"53.0527","CENTER_NAME":"EARTH","ELEMENT_SET_NO":"999","EPHEMERIS_TYPE":"0","OBJECT_ID":"2021-044X","MEAN_MOTION_DDOT":"0.0000000000000","MEAN_MOTION":"15.06407298","NORAD_CAT_ID":"48659","OBJECT_TYPE":"PAYLOAD","BSTAR":"0.00004627900000","CLASSIFICATION_TYPE":"U","ARG_OF_PERICENTER":"63.9642","APOAPSIS":"548.209","PERIAPSIS":"546.174","TLE_LINE1":"1 48659U 21044X   22079.51314258  .00000408  00000-0  46279-4 0  9996","COUNTRY_CODE":"US","REV_AT_EPOCH":"4513","REF_FRAME":"TEME","MEAN_ELEMENT_THEORY":"SGP4","RA_OF_ASC_NODE":"151.7214","SEMIMAJOR_AXIS":"6925.326","RCS_SIZE":"LARGE","MEAN_MOTION_DOT":"0.00000408","EPOCH":"2022-03-20T12:18:55.518912","PERIOD":"95.592","LAUNCH_DATE":"2021-05-26","TIME_SYSTEM":"UTC","SITE":"AFETR","GP_ID":"199232743"},{"CLASSIFICATION_TYPE":"U","APOAPSIS":"548.177","PERIAPSIS":"546.223","TLE_LINE1":"1 48660U 21044Y   22079.70848807  .00001674  00000-0  13121-3 0  9996","ARG_OF_PERICENTER":"73.1604","NORAD_CAT_ID":"48660","MEAN_MOTION":"15.06404452","MEAN_MOTION_DDOT":"0.0000000000000","BSTAR":"0.00013121000000","OBJECT_TYPE":"PAYLOAD","CENTER_NAME":"EARTH","OBJECT_ID":"2021-044Y","EPHEMERIS_TYPE":"0","ELEMENT_SET_NO":"999","FILE":"3367488","ECCENTRICITY":"0.00014110","TLE_LINE2":"2 48660  53.0547 150.8443 0001411  73.1604 286.9540 15.06404452 45164","MEAN_ANOMALY":"286.9540","INCLINATION":"53.0547","DECAY_DATE":null,"OBJECT_NAME":"STARLINK-2688","LAUNCH_DATE":"2021-05-26","GP_ID":"199268319","TIME_SYSTEM":"UTC","SITE":"AFETR","EPOCH":"2022-03-20T17:00:13.369248","MEAN_MOTION_DOT":"0.00001674","RCS_SIZE":"LARGE","PERIOD":"95.592","SEMIMAJOR_AXIS":"6925.335","COUNTRY_CODE":"US","REF_FRAME":"TEME","MEAN_ELEMENT_THEORY":"SGP4","RA_OF_ASC_NODE":"150.8443","REV_AT_EPOCH":"4516"},{"SEMIMAJOR_AXIS":"6925.299","REV_AT_EPOCH":"4529","RA_OF_ASC_NODE":"141.1378","MEAN_ELEMENT_THEORY":"SGP4","REF_FRAME":"TEME","COUNTRY_CODE":"US","TIME_SYSTEM":"UTC","SITE":"AFETR","GP_ID":"199268569","LAUNCH_DATE":"2021-05-26","PERIOD":"95.591","RCS_SIZE":"LARGE","MEAN_MOTION_DOT":"0.00003905","EPOCH":"2022-03-20T15:26:02.082624","ELEMENT_SET_NO":"999","EPHEMERIS_TYPE":"0","OBJECT_ID":"2021-044Z","CENTER_NAME":"EARTH","OBJECT_NAME":"STARLINK-2708","DECAY_DATE":null,"MEAN_ANOMALY":"311.1199","INCLINATION":"53.0552","TLE_LINE2":"2 48661  53.0552 141.1378 0001732  48.9940 311.1199 15.06416163 45297","ECCENTRICITY":"0.00017320","FILE":"3367488","ARG_OF_PERICENTER":"48.9940","TLE_LINE1":"1 48661U 21044Z   22079.64307966  .00003905  00000-0  28082-3 0  9997","PERIAPSIS":"545.965","APOAPSIS":"548.363","CLASSIFICATION_TYPE":"U","OBJECT_TYPE":"PAYLOAD","BSTAR":"0.00028082000000","MEAN_MOTION_DDOT":"0.0000000000000","MEAN_MOTION":"15.06416163","NORAD_CAT_ID":"48661"},{"REV_AT_EPOCH":"4529","MEAN_ELEMENT_THEORY":"SGP4","RA_OF_ASC_NODE":"141.1537","REF_FRAME":"TEME","COUNTRY_CODE":"US","SEMIMAJOR_AXIS":"6925.347","PERIOD":"95.592","RCS_SIZE":"LARGE","MEAN_MOTION_DOT":"0.00000729","EPOCH":"2022-03-20T15:20:42.660960","SITE":"AFETR","TIME_SYSTEM":"UTC","GP_ID":"199269321","LAUNCH_DATE":"2021-05-26","OBJECT_NAME":"STARLINK-2726","DECAY_DATE":null,"MEAN_ANOMALY":"292.3151","INCLINATION":"53.0533","TLE_LINE2":"2 48662  53.0533 141.1537 0001482  67.7995 292.3151 15.06400410 45291","ECCENTRICITY":"0.00014820","FILE":"3367488","ELEMENT_SET_NO":"999","EPHEMERIS_TYPE":"0","OBJECT_ID":"2021-044AA","CENTER_NAME":"EARTH","OBJECT_TYPE":"PAYLOAD","BSTAR":"0.00006786300000","MEAN_MOTION_DDOT":"0.0000000000000","NORAD_CAT_ID":"48662","MEAN_MOTION":"15.06400410","ARG_OF_PERICENTER":"67.7995","PERIAPSIS":"546.186","TLE_LINE1":"1 48662U 21044AA  22079.63938265  .00000729  00000-0  67863-4 0  9991","APOAPSIS":"548.239","CLASSIFICATION_TYPE":"U"},{"COUNTRY_CODE":"US","REF_FRAME":"TEME","MEAN_ELEMENT_THEORY":"SGP4","RA_OF_ASC_NODE":"141.7550","REV_AT_EPOCH":"4611","SEMIMAJOR_AXIS":"6925.373","MEAN_MOTION_DOT":"0.00001758","EPOCH":"2022-03-20T12:04:19.742592","RCS_SIZE":"LARGE","PERIOD":"95.593","LAUNCH_DATE":"2021-05-26","GP_ID":"199237060","SITE":"AFETR","TIME_SYSTEM":"UTC","ECCENTRICITY":"0.00015590","FILE":"3367114","TLE_LINE2":"2 48663  53.0554 141.7550 0001559  74.3334 285.7827 15.06391922 46117","MEAN_ANOMALY":"285.7827","INCLINATION":"53.0554","DECAY_DATE":null,"OBJECT_NAME":"STARLINK-2667","CENTER_NAME":"EARTH","EPHEMERIS_TYPE":"0","OBJECT_ID":"2021-044AB","ELEMENT_SET_NO":"999","MEAN_MOTION":"15.06391922","NORAD_CAT_ID":"48663","MEAN_MOTION_DDOT":"0.0000000000000","BSTAR":"0.00013692000000","OBJECT_TYPE":"PAYLOAD","CLASSIFICATION_TYPE":"U","APOAPSIS":"548.318","PERIAPSIS":"546.159","TLE_LINE1":"1 48663U 21044AB  22079.50300628  .00001758  00000-0  13692-3 0  9997","ARG_OF_PERICENTER":"74.3334"}];
